ONEWEB-0228             
1 48780U 21045P   24108.38481632  .00000084  00000+0  18926-3 0  9999
2 48780  87.9023  56.5454 0001790  81.1151 279.0182 13.15548755140357
